ORBCOMM FM05 [-]        
1 25117U 97084F   23286.49111992  .00004405  00000+0  13858-2 0  9990
2 25117  45.0158  58.7590 0001206  32.0411 328.0512 14.41538246352071
ORBCOMM FM06 [+]        
1 25118U 97084G   23286.65876698  .00004494  00000+0  14143-2 0  9996
2 25118  45.0153  58.1176 0000624  85.5541 289.2815 14.41483240353013
ORBCOMM FM07 [-]        
1 25119U 97084H   23286.63754652  .00004617  00000+0  14535-2 0  9992
2 25119  45.0146  58.6570 0001786   6.4981 353.5892 14.41430005353009
ORBCOMM FM03 [-]        
1 25158U 98007B   23287.33429738  .00002159  00000+0  85113-3 0  9993
2 25158 107.9805 321.7328 0049771 237.3897 122.2431 14.31352500336546
ORBCOMM FM04 [+]        
1 25159U 98007C   23286.94163485  .00002285  00000+0  89527-3 0  9997
2 25159 107.9788 323.7266 0045255 236.2441 123.4381 14.31625420336514
ORBCOMM FM17 [-]        
1 25413U 98046A   23286.26088720  .00002405  00000+0  93229-3 0  9994
2 25413  44.9935 263.6848 0002916 337.3483  22.7234 14.32408746315218
ORBCOMM FM18 [-]        
1 25414U 98046B   23286.85044079  .00003285  00000+0  11934-2 0  9998
2 25414  44.9933 192.2538 0004074  65.2544 294.8726 14.34927256316192
ORBCOMM FM19 [+]        
1 25415U 98046C   23287.17217642  .00002779  00000+0  10198-2 0  9991
2 25415  44.9941 191.8859 0003151  50.8360 104.0254 14.34798325316409
